GLOBALSTAR M024         
1 25883U 99043A   24183.51791069 -.00000053  00000+0  41546-3 0  9998
2 25883  52.0010  91.8482 0001011 271.5755 258.5678 11.10156337 75914
GLOBALSTAR M027         
1 25884U 99043B   24183.39793014 -.00000084  00000+0 -78380-3 0  9998
2 25884  52.0176 160.1625 0020951 144.9461 215.2715 11.04368914102482
GLOBALSTAR M054         
1 25885U 99043C   24183.59785997  .00000008  00000+0  20132-2 0  9997
2 25885  52.0164 345.8527 0004216 305.6399 131.6700 11.39205216 79093
GLOBALSTAR M053         
1 25886U 99043D   24183.57025512 -.00000053  00000+0  45934-3 0  9995
2 25886  51.9983 273.5635 0003924 201.7434 171.0213 11.27656371 79893
GLOBALSTAR M050         
1 25908U 99049B   24183.63808962 -.00000043  00000+0  50704-3 0  9991
2 25908  52.0011 359.0840 0009769  56.7837  18.8241 12.07435060105841
GLOBALSTAR M033         
1 25909U 99049C   24183.53018217 -.00000088  00000+0  38513-4 0  9991
2 25909  51.9907 255.4373 0012377 263.9937  95.9500 12.20273365492932
GLOBALSTAR M055         
1 25910U 99049D   24183.52345527 -.00000073  00000+0  18510-3 0  9997
2 25910  52.0022 283.2678 0007678 124.3384 235.8195 12.29403533125372
